LEMUR-2-HUBBLE-4        
1 64565U 25135AP  26186.29359763  .00001802  00000+0  17583-3 0  9996
2 64565  97.7712 299.9869 0001767 191.9350 168.1828 14.93666828 56572
LEMUR-2-SEJONG-2        
1 64586U 25135BL  26186.62236267  .00004722  00000+0  41674-3 0  9991
2 64586  97.7713 301.5199 0002972 261.4085  98.6800 14.96865231 56703
LEMUR-2-HUBBLE-5        
1 64840U 25135BT  26186.30592850  .00001787  00000+0  17213-3 0  9992
2 64840  97.7733 300.6576 0004082 279.5658  80.5101 14.94193167 56611
LEMUR-2-AFFIE-WAUWIE    
1 66295U 25248C   26186.56345075  .00027095  00000+0  98110-3 0  9991
2 66295  45.3925  15.3744 0008384 201.1291 158.9253 15.27968008 37404
LEMUR-2-DEANANDMAEVE    
1 66678U 25276N   26186.15689710  .00011857  00000+0  55357-3 0  9994
2 66678  97.4199 259.3362 0004313 301.8123  58.2692 15.19969748 33145
LEMUR-2-STAS-GORBUK     
1 66686U 25276W   26186.57083552  .00008164  00000+0  38656-3 0  9991
2 66686  97.4234 259.7964 0003504 298.0298  62.0582 15.19589206 33202
LEMUR-2-TEODOR          
1 66768U 25276DG  26186.20555172  .00010159  00000+0  45744-3 0  9997
2 66768  97.4140 259.6964 0002349  98.3260 261.8243 15.21261851 33180
LEMUR-2-LAILA           
1 66776U 25276DQ  26186.50566773  .00008520  00000+0  38167-3 0  9998
2 66776  97.4164 260.1243 0002870 109.0476 251.1071 15.21488780 33239
LEMUR-2-CELIJO-SB-PK    
1 66781U 25276DW  26186.18029440  .00011915  00000+0  95586-3 0  9993
2 66781  97.5202 256.3655 0007554  88.8480 271.3609 15.00210002 25325
LEMUR-2-FINNIAN         
1 66782U 25276DX  26186.15278903  .00003846  00000+0  30931-3 0  9998
2 66782  97.5318 256.5831 0008467  37.3542 322.8270 15.00539446 22693
LEMUR-2-STARLIGHT       
1 66783U 25276DY  26186.19164213  .00012012  00000+0  98592-3 0  9993
2 66783  97.5224 256.2150 0014650  76.2923 283.9931 14.99267123 32898
LEMUR-2-TARTIFLETTE     
1 66784U 25276DZ  26186.18996294  .00010228  00000+0  84074-3 0  9992
2 66784  97.5225 256.2213 0013673  83.9718 276.3063 14.99263341 32891
LEMUR-2-VUKASIN         
1 66785U 25276EA  26186.16841347  .00002695  00000+0  21869-3 0  9991
2 66785  97.5256 256.5396 0004613  82.2970 277.8778 15.00457120 32844
LEMUR-2-HOTSPUR-TOM     
1 66786U 25276EB  26186.18373493  .00011028  00000+0  90814-3 0  9992
2 66786  97.5218 256.1926 0014039  75.2792 284.9986 14.99168806 32820
