{"fetched_at":"2026-07-06T08:46:43.220Z","source":"https://celestrak.org/NORAD/elements/gp.php?GROUP=spire&FORMAT=JSON","constellation":"spire","records":[{"OBJECT_NAME":"LEMUR-2-HUBBLE-4","OBJECT_ID":"2025-135AP","EPOCH":"2026-07-05T07:02:46.835232","CLASSIFICATION_TYPE":"U","MEAN_MOTION":14.93666828,"ECCENTRICITY":0.0001767,"INCLINATION":97.7712,"RA_OF_ASC_NODE":299.9869,"ARG_OF_PERICENTER":191.935,"MEAN_ANOMALY":168.1828,"EPHEMERIS_TYPE":0,"NORAD_CAT_ID":64565,"ELEMENT_SET_NO":999,"REV_AT_EPOCH":5657,"BSTAR":0.00017583,"MEAN_MOTION_DOT":0.00001802,"MEAN_MOTION_DDOT":0},{"OBJECT_NAME":"LEMUR-2-SEJONG-2","OBJECT_ID":"2025-135BL","EPOCH":"2026-07-05T14:56:12.134688","CLASSIFICATION_TYPE":"U","MEAN_MOTION":14.96865231,"ECCENTRICITY":0.00029726,"INCLINATION":97.7713,"RA_OF_ASC_NODE":301.5199,"ARG_OF_PERICENTER":261.4085,"MEAN_ANOMALY":98.68,"EPHEMERIS_TYPE":0,"NORAD_CAT_ID":64586,"ELEMENT_SET_NO":999,"REV_AT_EPOCH":5670,"BSTAR":0.00041674361,"MEAN_MOTION_DOT":0.00004722,"MEAN_MOTION_DDOT":0},{"OBJECT_NAME":"LEMUR-2-HUBBLE-5","OBJECT_ID":"2025-135BT","EPOCH":"2026-07-05T07:20:32.222400","CLASSIFICATION_TYPE":"U","MEAN_MOTION":14.94193167,"ECCENTRICITY":0.0004082,"INCLINATION":97.7733,"RA_OF_ASC_NODE":300.6576,"ARG_OF_PERICENTER":279.5658,"MEAN_ANOMALY":80.5101,"EPHEMERIS_TYPE":0,"NORAD_CAT_ID":64840,"ELEMENT_SET_NO":999,"REV_AT_EPOCH":5661,"BSTAR":0.00017213,"MEAN_MOTION_DOT":0.00001787,"MEAN_MOTION_DDOT":0},{"OBJECT_NAME":"LEMUR-2-AFFIE-WAUWIE","OBJECT_ID":"2025-248C","EPOCH":"2026-07-05T13:31:22.144800","CLASSIFICATION_TYPE":"U","MEAN_MOTION":15.27968008,"ECCENTRICITY":0.00083848,"INCLINATION":45.3925,"RA_OF_ASC_NODE":15.3744,"ARG_OF_PERICENTER":201.1291,"MEAN_ANOMALY":158.9253,"EPHEMERIS_TYPE":0,"NORAD_CAT_ID":66295,"ELEMENT_SET_NO":999,"REV_AT_EPOCH":3740,"BSTAR":0.00098110159,"MEAN_MOTION_DOT":0.00027095,"MEAN_MOTION_DDOT":0},{"OBJECT_NAME":"LEMUR-2-DEANANDMAEVE","OBJECT_ID":"2025-276N","EPOCH":"2026-07-05T03:45:55.908576","CLASSIFICATION_TYPE":"U","MEAN_MOTION":15.19969748,"ECCENTRICITY":0.0004314,"INCLINATION":97.4199,"RA_OF_ASC_NODE":259.3362,"ARG_OF_PERICENTER":301.8123,"MEAN_ANOMALY":58.2692,"EPHEMERIS_TYPE":0,"NORAD_CAT_ID":66678,"ELEMENT_SET_NO":999,"REV_AT_EPOCH":3314,"BSTAR":0.00055357,"MEAN_MOTION_DOT":0.00011857,"MEAN_MOTION_DDOT":0},{"OBJECT_NAME":"LEMUR-2-STAS-GORBUK","OBJECT_ID":"2025-276W","EPOCH":"2026-07-05T13:42:00.188928","CLASSIFICATION_TYPE":"U","MEAN_MOTION":15.19589206,"ECCENTRICITY":0.00035049,"INCLINATION":97.4234,"RA_OF_ASC_NODE":259.7964,"ARG_OF_PERICENTER":298.0298,"MEAN_ANOMALY":62.0582,"EPHEMERIS_TYPE":0,"NORAD_CAT_ID":66686,"ELEMENT_SET_NO":999,"REV_AT_EPOCH":3320,"BSTAR":0.00038656161,"MEAN_MOTION_DOT":0.00008164,"MEAN_MOTION_DDOT":0},{"OBJECT_NAME":"LEMUR-2-TEODOR","OBJECT_ID":"2025-276DG","EPOCH":"2026-07-05T04:55:59.667744","CLASSIFICATION_TYPE":"U","MEAN_MOTION":15.21261851,"ECCENTRICITY":0.0002349,"INCLINATION":97.414,"RA_OF_ASC_NODE":259.6964,"ARG_OF_PERICENTER":98.326,"MEAN_ANOMALY":261.8243,"EPHEMERIS_TYPE":0,"NORAD_CAT_ID":66768,"ELEMENT_SET_NO":999,"REV_AT_EPOCH":3318,"BSTAR":0.00045744,"MEAN_MOTION_DOT":0.00010159,"MEAN_MOTION_DDOT":0},{"OBJECT_NAME":"LEMUR-2-LAILA","OBJECT_ID":"2025-276DQ","EPOCH":"2026-07-05T12:08:09.691872","CLASSIFICATION_TYPE":"U","MEAN_MOTION":15.2148878,"ECCENTRICITY":0.00028701,"INCLINATION":97.4164,"RA_OF_ASC_NODE":260.1243,"ARG_OF_PERICENTER":109.0476,"MEAN_ANOMALY":251.1071,"EPHEMERIS_TYPE":0,"NORAD_CAT_ID":66776,"ELEMENT_SET_NO":999,"REV_AT_EPOCH":3323,"BSTAR":0.00038166516,"MEAN_MOTION_DOT":0.0000852,"MEAN_MOTION_DDOT":0},{"OBJECT_NAME":"LEMUR-2-CELIJO-SB-PK","OBJECT_ID":"2025-276DW","EPOCH":"2026-07-05T04:19:37.436160","CLASSIFICATION_TYPE":"U","MEAN_MOTION":15.00210002,"ECCENTRICITY":0.0007554,"INCLINATION":97.5202,"RA_OF_ASC_NODE":256.3655,"ARG_OF_PERICENTER":88.848,"MEAN_ANOMALY":271.3609,"EPHEMERIS_TYPE":0,"NORAD_CAT_ID":66781,"ELEMENT_SET_NO":999,"REV_AT_EPOCH":2532,"BSTAR":0.00095586,"MEAN_MOTION_DOT":0.00011915,"MEAN_MOTION_DDOT":0},{"OBJECT_NAME":"LEMUR-2-FINNIAN","OBJECT_ID":"2025-276DX","EPOCH":"2026-07-05T03:40:00.972192","CLASSIFICATION_TYPE":"U","MEAN_MOTION":15.00539446,"ECCENTRICITY":0.00084676,"INCLINATION":97.5318,"RA_OF_ASC_NODE":256.5831,"ARG_OF_PERICENTER":37.3542,"MEAN_ANOMALY":322.827,"EPHEMERIS_TYPE":0,"NORAD_CAT_ID":66782,"ELEMENT_SET_NO":999,"REV_AT_EPOCH":2269,"BSTAR":0.00030930727,"MEAN_MOTION_DOT":0.00003846,"MEAN_MOTION_DDOT":0},{"OBJECT_NAME":"LEMUR-2-STARLIGHT","OBJECT_ID":"2025-276DY","EPOCH":"2026-07-05T04:35:57.880032","CLASSIFICATION_TYPE":"U","MEAN_MOTION":14.99267123,"ECCENTRICITY":0.0014651,"INCLINATION":97.5224,"RA_OF_ASC_NODE":256.215,"ARG_OF_PERICENTER":76.2923,"MEAN_ANOMALY":283.9931,"EPHEMERIS_TYPE":0,"NORAD_CAT_ID":66783,"ELEMENT_SET_NO":999,"REV_AT_EPOCH":3289,"BSTAR":0.00098592,"MEAN_MOTION_DOT":0.00012012,"MEAN_MOTION_DDOT":0},{"OBJECT_NAME":"LEMUR-2-TARTIFLETTE","OBJECT_ID":"2025-276DZ","EPOCH":"2026-07-05T04:33:32.798016","CLASSIFICATION_TYPE":"U","MEAN_MOTION":14.9926334,"ECCENTRICITY":0.0013673,"INCLINATION":97.5225,"RA_OF_ASC_NODE":256.2213,"ARG_OF_PERICENTER":83.9718,"MEAN_ANOMALY":276.3063,"EPHEMERIS_TYPE":0,"NORAD_CAT_ID":66784,"ELEMENT_SET_NO":999,"REV_AT_EPOCH":3289,"BSTAR":0.00084074,"MEAN_MOTION_DOT":0.00010228,"MEAN_MOTION_DDOT":0},{"OBJECT_NAME":"LEMUR-2-VUKASIN","OBJECT_ID":"2025-276EA","EPOCH":"2026-07-05T04:02:30.922944","CLASSIFICATION_TYPE":"U","MEAN_MOTION":15.0045712,"ECCENTRICITY":0.0004613,"INCLINATION":97.5256,"RA_OF_ASC_NODE":256.5396,"ARG_OF_PERICENTER":82.297,"MEAN_ANOMALY":277.8778,"EPHEMERIS_TYPE":0,"NORAD_CAT_ID":66785,"ELEMENT_SET_NO":999,"REV_AT_EPOCH":3284,"BSTAR":0.00021869,"MEAN_MOTION_DOT":0.00002695,"MEAN_MOTION_DDOT":0},{"OBJECT_NAME":"LEMUR-2-HOTSPUR-TOM","OBJECT_ID":"2025-276EB","EPOCH":"2026-07-05T04:24:34.697088","CLASSIFICATION_TYPE":"U","MEAN_MOTION":14.99168806,"ECCENTRICITY":0.0014039,"INCLINATION":97.5218,"RA_OF_ASC_NODE":256.1926,"ARG_OF_PERICENTER":75.2792,"MEAN_ANOMALY":284.9986,"EPHEMERIS_TYPE":0,"NORAD_CAT_ID":66786,"ELEMENT_SET_NO":999,"REV_AT_EPOCH":3282,"BSTAR":0.00090814,"MEAN_MOTION_DOT":0.00011028,"MEAN_MOTION_DDOT":0}]}
